[{"OBJECT_NAME":"STARLINK-35851","OBJECT_ID":"2025-254J","EPOCH":"2026-03-09T21:21:22.380768","MEAN_MOTION":15.3019816,"ECCENTRICITY":9.41e-5,"INCLINATION":53.157,"RA_OF_ASC_NODE":231.715,"ARG_OF_PERICENTER":108.6676,"MEAN_ANOMALY":251.4427,"EPHEMERIS_TYPE":0,"CLASSIFICATION_TYPE":"U","NORAD_CAT_ID":66356,"ELEMENT_SET_NO":999,"REV_AT_EPOCH":1900,"BSTAR":0.0009115398,"MEAN_MOTION_DOT":0.00026734,"MEAN_MOTION_DDOT":0},{"OBJECT_NAME":"USA 24","OBJECT_ID":"1987-043F","EPOCH":"2026-03-09T22:20:48.799968","MEAN_MOTION":13.84752929,"ECCENTRICITY":0.07971297,"INCLINATION":63.2957,"RA_OF_ASC_NODE":276.5953,"ARG_OF_PERICENTER":102.7417,"MEAN_ANOMALY":266.3854,"EPHEMERIS_TYPE":0,"CLASSIFICATION_TYPE":"U","NORAD_CAT_ID":18010,"ELEMENT_SET_NO":999,"REV_AT_EPOCH":33170,"BSTAR":0.00081528793,"MEAN_MOTION_DOT":0.00014135,"MEAN_MOTION_DDOT":0}]
